{"type": "FeatureCollection", "features": [ {"type": "Feature", "properties": {"norad_id": 37069, "name": "FENGYUN 1C DEB", "group": "fengyun-1c-debris", "lat": -45.76715337117998, "lon": -30.21306212212022, "alt_km": 1100.3364904792843, "timestamp": "2025-12-24T03:53:29.936432+00:00", "meta": {"OBJECT_NAME": "FENGYUN 1C DEB", "OBJECT_ID": "1999-025EFD", "EPOCH": "2025-12-21T04:20:13.765632", "MEAN_MOTION": 13.38005069, "ECCENTRICITY": 0.04234335, "INCLINATION": 95.8488, "RA_OF_ASC_NODE": 322.0189, "ARG_OF_PERICENTER": 233.7857, "MEAN_ANOMALY": 122.3437, "EPHEMERIS_TYPE": 0, "CLASSIFICATION_TYPE": "U", "NORAD_CAT_ID": 37069, "ELEMENT_SET_NO": 999, "REV_AT_EPOCH": 87821, "BSTAR": 0.00093197507, "MEAN_MOTION_DOT": 8.07e-06, "MEAN_MOTION_DDOT": 0}, "tle": {"line1": "1 37069U 99025EFD 25355.18071488  .00000807  00000+0  93198-3 0  9994", "line2": "2 37069  95.8488 322.0189 0423433 233.7857 122.3437 13.38005069878211"}}, "geometry": {"type": "Point", "coordinates": [-30.21306212212022, -45.76715337117998]}}, {"type": "Feature", "properties": {"norad_id": 37077, "name": "FENGYUN 1C DEB", "group": "fengyun-1c-debris", "lat": 24.224166790138906, "lon": -101.95086198754514, "alt_km": 804.9260692821317, "timestamp": "2025-12-24T03:53:29.936442+00:00", "meta": {"OBJECT_NAME": "FENGYUN 1C DEB", "OBJECT_ID": "1999-025EFM", "EPOCH": "2025-12-23T03:50:18.821184", "MEAN_MOTION": 14.41218056, "ECCENTRICITY": 0.0095013, "INCLINATION": 99.0335, "RA_OF_ASC_NODE": 72.8858, "ARG_OF_PERICENTER": 297.6079, "MEAN_ANOMALY": 61.5485, "EPHEMERIS_TYPE": 0, "CLASSIFICATION_TYPE": "U", "NORAD_CAT_ID": 37077, "ELEMENT_SET_NO": 999, "REV_AT_EPOCH": 85105, "BSTAR": 0.00033215123, "MEAN_MOTION_DOT": 1.079e-05, "MEAN_MOTION_DDOT": 0}, "tle": {"line1": "1 37077U 99025EFM 25357.15994006  .00001079  00000+0  33215-3 0  9998", "line2": "2 37077  99.0335  72.8858 0095013 297.6079  61.5485 14.41218056851051"}}, "geometry": {"type": "Point", "coordinates": [-101.95086198754514, 24.224166790138906]}}, {"type": "Feature", "properties": {"norad_id": 37079, "name": "FENGYUN 1C DEB", "group": "fengyun-1c-debris", "lat": 57.15315892672598, "lon": 119.91897534472501, "alt_km": 681.9124806939308, "timestamp": "2025-12-24T03:53:29.936454+00:00", "meta": {"OBJECT_NAME": "FENGYUN 1C DEB", "OBJECT_ID": "1999-025EFP", "EPOCH": "2025-12-18T02:53:46.135104", "MEAN_MOTION": 14.6004098, "ECCENTRICITY": 0.00113024, "INCLINATION": 98.8569, "RA_OF_ASC_NODE": 127.4448, "ARG_OF_PERICENTER": 127.1954, "MEAN_ANOMALY": 233.0277, "EPHEMERIS_TYPE": 0, "CLASSIFICATION_TYPE": "U", "NORAD_CAT_ID": 37079, "ELEMENT_SET_NO": 999, "REV_AT_EPOCH": 64694, "BSTAR": 0.0027811281, "MEAN_MOTION_DOT": 0.00013341, "MEAN_MOTION_DDOT": 0}, "tle": {"line1": "1 37079U 99025EFP 25352.12067286  .00013341  00000+0  27811-2 0  9992", "line2": "2 37079  98.8569 127.4448 0011302 127.1954 233.0277 14.60040980646944"}}, "geometry": {"type": "Point", "coordinates": [119.91897534472501, 57.15315892672598]}}, {"type": "Feature", "properties": {"norad_id": 37081, "name": "FENGYUN 1C DEB", "group": "fengyun-1c-debris", "lat": 22.872301109029646, "lon": -26.13461981834341, "alt_km": 1023.812191168262, "timestamp": "2025-12-24T03:53:29.936465+00:00", "meta": {"OBJECT_NAME": "FENGYUN 1C DEB", "OBJECT_ID": "1999-025EFR", "EPOCH": "2025-12-21T15:41:59.866368", "MEAN_MOTION": 14.13992417, "ECCENTRICITY": 0.0266704, "INCLINATION": 98.7038, "RA_OF_ASC_NODE": 147.7147, "ARG_OF_PERICENTER": 322.5085, "MEAN_ANOMALY": 35.7745, "EPHEMERIS_TYPE": 0, "CLASSIFICATION_TYPE": "U", "NORAD_CAT_ID": 37081, "ELEMENT_SET_NO": 999, "REV_AT_EPOCH": 58700, "BSTAR": 0.0028473183, "MEAN_MOTION_DOT": 7.567e-05, "MEAN_MOTION_DDOT": 0}, "tle": {"line1": "1 37081U 99025EFR 25355.65416512  .00007567  00000+0  28473-2 0  9994", "line2": "2 37081  98.7038 147.7147 0266704 322.5085  35.7745 14.13992417587009"}}, "geometry": {"type": "Point", "coordinates": [-26.13461981834341, 22.872301109029646]}}, {"type": "Feature", "properties": {"norad_id": 37400, "name": "FENGYUN 1C DEB", "group": "fengyun-1c-debris", "lat": 29.331900401134, "lon": -170.48478295064984, "alt_km": 942.3223044223732, "timestamp": "2025-12-24T03:53:29.936475+00:00", "meta": {"OBJECT_NAME": "FENGYUN 1C DEB", "OBJECT_ID": "1999-025EFS", "EPOCH": "2025-12-21T07:04:10.924896", "MEAN_MOTION": 13.63653969, "ECCENTRICITY": 0.04017941, "INCLINATION": 98.8374, "RA_OF_ASC_NODE": 191.9168, "ARG_OF_PERICENTER": 114.2366, "MEAN_ANOMALY": 250.1307, "EPHEMERIS_TYPE": 0, "CLASSIFICATION_TYPE": "U", "NORAD_CAT_ID": 37400, "ELEMENT_SET_NO": 999, "REV_AT_EPOCH": 80310, "BSTAR": 0.00033721294, "MEAN_MOTION_DOT": 4.26e-06, "MEAN_MOTION_DDOT": 0}, "tle": {"line1": "1 37400U 99025EFS 25355.29457089  .00000426  00000+0  33721-3 0  9993", "line2": "2 37400  98.8374 191.9168 0401794 114.2366 250.1307 13.63653969803109"}}, "geometry": {"type": "Point", "coordinates": [-170.48478295064984, 29.331900401134]}}, {"type": "Feature", "properties": {"norad_id": 37404, "name": "FENGYUN 1C DEB", "group": "fengyun-1c-debris", "lat": 71.4819441577909, "lon": -25.650226673278507, "alt_km": 760.7991579172894, "timestamp": "2025-12-24T03:53:29.936487+00:00", "meta": {"OBJECT_NAME": "FENGYUN 1C DEB", "OBJECT_ID": "1999-025EFW", "EPOCH": "2025-12-22T06:21:11.904768", "MEAN_MOTION": 14.31671583, "ECCENTRICITY": 0.00448603, "INCLINATION": 98.4521, "RA_OF_ASC_NODE": 358.8573, "ARG_OF_PERICENTER": 134.3653, "MEAN_ANOMALY": 245.751, "EPHEMERIS_TYPE": 0, "CLASSIFICATION_TYPE": "U", "NORAD_CAT_ID": 37404, "ELEMENT_SET_NO": 999, "REV_AT_EPOCH": 82877, "BSTAR": 0.00061046451, "MEAN_MOTION_DOT": 1.603e-05, "MEAN_MOTION_DDOT": 0}, "tle": {"line1": "1 37404U 99025EFW 25356.26472112  .00001603  00000+0  61046-3 0  9998", "line2": "2 37404  98.4521 358.8573 0044860 134.3653 245.7510 14.31671583828770"}}, "geometry": {"type": "Point", "coordinates": [-25.650226673278507, 71.4819441577909]}}, {"type": "Feature", "properties": {"norad_id": 37406, "name": "FENGYUN 1C DEB", "group": "fengyun-1c-debris", "lat": -46.74420310658465, "lon": -121.41025537185872, "alt_km": 862.6750677498785, "timestamp": "2025-12-24T03:53:29.936500+00:00", "meta": {"OBJECT_NAME": "FENGYUN 1C DEB", "OBJECT_ID": "1999-025EFY", "EPOCH": "2025-12-22T21:25:18.983712", "MEAN_MOTION": 14.04322648, "ECCENTRICITY": 0.0149002, "INCLINATION": 98.4422, "RA_OF_ASC_NODE": 228.3273, "ARG_OF_PERICENTER": 237.6603, "MEAN_ANOMALY": 138.5268, "EPHEMERIS_TYPE": 0, "CLASSIFICATION_TYPE": "U", "NORAD_CAT_ID": 37406, "ELEMENT_SET_NO": 999, "REV_AT_EPOCH": 63375, "BSTAR": 0.00087973, "MEAN_MOTION_DOT": 1.504e-05, "MEAN_MOTION_DDOT": 0}, "tle": {"line1": "1 37406U 99025EFY 25356.89258083  .00001504  00000+0  87973-3 0  9995", "line2": "2 37406  98.4422 228.3273 0149002 237.6603 138.5268 14.04322648633752"}}, "geometry": {"type": "Point", "coordinates": [-121.41025537185872, -46.74420310658465]}}, {"type": "Feature", "properties": {"norad_id": 37415, "name": "FENGYUN 1C DEB", "group": "fengyun-1c-debris", "lat": -38.40970997595609, "lon": 112.13594222300317, "alt_km": 1278.2877858209777, "timestamp": "2025-12-24T03:53:29.936510+00:00", "meta": {"OBJECT_NAME": "FENGYUN 1C DEB", "OBJECT_ID": "1999-025EGH", "EPOCH": "2025-12-23T13:53:12.939072", "MEAN_MOTION": 13.5209761, "ECCENTRICITY": 0.0285331, "INCLINATION": 98.9814, "RA_OF_ASC_NODE": 104.4038, "ARG_OF_PERICENTER": 154.7014, "MEAN_ANOMALY": 206.8414, "EPHEMERIS_TYPE": 0, "CLASSIFICATION_TYPE": "U", "NORAD_CAT_ID": 37415, "ELEMENT_SET_NO": 999, "REV_AT_EPOCH": 62468, "BSTAR": 0.00032334, "MEAN_MOTION_DOT": 2.38e-06, "MEAN_MOTION_DDOT": 0}, "tle": {"line1": "1 37415U 99025EGH 25357.57862198  .00000238  00000+0  32334-3 0  9993", "line2": "2 37415  98.9814 104.4038 0285331 154.7014 206.8414 13.52097610624680"}}, "geometry": {"type": "Point", "coordinates": [112.13594222300317, -38.40970997595609]}}, {"type": "Feature", "properties": {"norad_id": 37417, "name": "FENGYUN 1C DEB", "group": "fengyun-1c-debris", "lat": -32.87328372848027, "lon": 164.91241503374056, "alt_km": 819.3080246563113, "timestamp": "2025-12-24T03:53:29.936522+00:00", "meta": {"OBJECT_NAME": "FENGYUN 1C DEB", "OBJECT_ID": "1999-025EGK", "EPOCH": "2025-12-23T18:20:46.511808", "MEAN_MOTION": 14.07401894, "ECCENTRICITY": 0.007857, "INCLINATION": 98.7977, "RA_OF_ASC_NODE": 350.2692, "ARG_OF_PERICENTER": 229.3558, "MEAN_ANOMALY": 130.0762, "EPHEMERIS_TYPE": 0, "CLASSIFICATION_TYPE": "U", "NORAD_CAT_ID": 37417, "ELEMENT_SET_NO": 999, "REV_AT_EPOCH": 68505, "BSTAR": 0.0003651, "MEAN_MOTION_DOT": 5.88e-06, "MEAN_MOTION_DDOT": 0}, "tle": {"line1": "1 37417U 99025EGK 25357.76442722  .00000588  00000+0  36510-3 0  9991", "line2": "2 37417  98.7977 350.2692 0078570 229.3558 130.0762 14.07401894685050"}}, "geometry": {"type": "Point", "coordinates": [164.91241503374056, -32.87328372848027]}}, {"type": "Feature", "properties": {"norad_id": 37418, "name": "FENGYUN 1C DEB", "group": "fengyun-1c-debris", "lat": -38.34097494247807, "lon": -106.59482197610303, "alt_km": 899.4961406337079, "timestamp": "2025-12-24T03:53:29.936533+00:00", "meta": {"OBJECT_NAME": "FENGYUN 1C DEB", "OBJECT_ID": "1999-025EGL", "EPOCH": "2025-12-19T23:37:42.567744", "MEAN_MOTION": 11.95144251, "ECCENTRICITY": 0.10761283, "INCLINATION": 98.6118, "RA_OF_ASC_NODE": 243.7385, "ARG_OF_PERICENTER": 305.6539, "MEAN_ANOMALY": 44.8873, "EPHEMERIS_TYPE": 0, "CLASSIFICATION_TYPE": "U", "NORAD_CAT_ID": 37418, "ELEMENT_SET_NO": 999, "REV_AT_EPOCH": 49571, "BSTAR": -0.00092644522, "MEAN_MOTION_DOT": -4.14e-06, "MEAN_MOTION_DDOT": 0}, "tle": {"line1": "1 37418U 99025EGL 25353.98452046 -.00000414  00000+0 -92645-3 0  9993", "line2": "2 37418  98.6118 243.7385 1076128 305.6539  44.8873 11.95144251495719"}}, "geometry": {"type": "Point", "coordinates": [-106.59482197610303, -38.34097494247807]}}]}